[{"name":"STARLINK-30239","l1":"1 57291U 23096B   26183.73874656 -.00001717  00000+0 -52897-4 0  9992","l2":"2 57291  43.0026 293.3623 0001564 260.9571  99.1104 15.27574261165214","cat":"starlink"},{"name":"STARLINK-30235","l1":"1 57294U 23096E   26183.67970448  .00000587  00000+0  30828-4 0  9996","l2":"2 57294  43.0019 293.7792 0003113 258.7043 101.3459 15.27641331165202","cat":"starlink"},{"name":"STARLINK-30236","l1":"1 57300U 23096L   26183.68362742 -.00000279  00000+0 -59414-6 0  9991","l2":"2 57300  43.0054 293.7960 0001891 273.1706  86.8930 15.27577008165248","cat":"starlink"},{"name":"STARLINK-30201","l1":"1 57301U 23096M   26183.69390983  .00000813  00000+0  39134-4 0  9998","l2":"2 57301  43.0100 293.8740 0003135 268.6163  91.4329 15.27560728164308","cat":"starlink"},{"name":"STARLINK-30233","l1":"1 57302U 23096N   26183.68749707 -.00002478  00000+0 -80572-4 0  9993","l2":"2 57302  43.0041 293.8101 0001425 276.1312  83.9378 15.27568400164309","cat":"starlink"},{"name":"STARLINK-30184","l1":"1 57310U 23096W   26183.59242700  .00006467  00000+0  24428-3 0  9990","l2":"2 57310  42.9993 265.5613 0000871   6.0606 354.0256 15.27586304164621","cat":"starlink"},{"name":"STARLINK-6290","l1":"1 57328U 23099A   26183.72740789  .00000269  00000+0  19305-4 0  9990","l2":"2 57328  43.0020 322.4162 0002181 266.2330  93.8272 15.27575287164584","cat":"starlink"},{"name":"STARLINK-6138","l1":"1 57329U 23099B   26183.75310845 -.00000644  00000+0 -13894-4 0  9996","l2":"2 57329  43.0017 322.6093 0001207 271.1438  88.9276 15.27572722163677","cat":"starlink"},{"name":"STARLINK-6212","l1":"1 57330U 23099C   26183.73897763  .00000250  00000+0  18605-4 0  9991","l2":"2 57330  43.0016 322.5048 0001329 270.0459  90.0241 15.27579173163676","cat":"starlink"},{"name":"STARLINK-6234","l1":"1 57331U 23099D   26183.74283080 -.00000607  00000+0 -12535-4 0  9998","l2":"2 57331  43.0030 322.5350 0001205 267.6485  92.4228 15.27574814163671","cat":"starlink"},{"name":"STARLINK-5831","l1":"1 57332U 23099E   26183.74539956  .00000094  00000+0  12926-4 0  9997","l2":"2 57332  43.0042 322.5515 0001131 272.6837  87.3885 15.27574577163671","cat":"starlink"},{"name":"STARLINK-5585","l1":"1 57333U 23099F   26183.74925463 -.00000948  00000+0 -24927-4 0  9994","l2":"2 57333  43.0053 322.5796 0001101 279.1713  80.9014 15.27576006163679","cat":"starlink"},{"name":"STARLINK-5589","l1":"1 57334U 23099G   26183.75695975  .00002030  00000+0  83299-4 0  9997","l2":"2 57334  43.0031 322.6333 0001244 267.9773  92.0937 15.27575320163679","cat":"starlink"},{"name":"STARLINK-6316","l1":"1 57335U 23099H   26183.77544817 -.00000214  00000+0  17553-5 0  9992","l2":"2 57335  43.0026 319.3717 0001797 268.7329  91.3316 15.27576985163718","cat":"starlink"},{"name":"STARLINK-6320","l1":"1 57336U 23099J   26183.70363147 -.00001014  00000+0 -27324-4 0  9997","l2":"2 57336  43.0048 319.6708 0001919 281.2582  78.8053 15.27576317163709","cat":"starlink"},{"name":"STARLINK-6322","l1":"1 57337U 23099K   26183.76467542  .00000477  00000+0  26880-4 0  9994","l2":"2 57337  43.0039 322.6914 0001260 272.4683  87.6024 15.27574155163676","cat":"starlink"},{"name":"STARLINK-6374","l1":"1 57338U 23099L   26183.76724774 -.00000958  00000+0 -25315-4 0  9996","l2":"2 57338  43.0028 322.7095 0000358 287.5472  72.5340 15.27574220163673","cat":"starlink"},{"name":"STARLINK-6332","l1":"1 57339U 23099M   26183.76082021 -.00002735  00000+0 -89935-4 0  9992","l2":"2 57339  43.0042 322.6632 0001374 276.4255  83.6440 15.27569092163676","cat":"starlink"},{"name":"STARLINK-6321","l1":"1 57340U 23099N   26183.71727921 -.00000350  00000+0 -31946-5 0  9995","l2":"2 57340  43.0048 323.1895 0002195 284.8090  75.2519 15.27574730163661","cat":"starlink"},{"name":"STARLINK-6377","l1":"1 57341U 23099P   26183.74747740  .00000252  00000+0  18696-4 0  9995","l2":"2 57341  43.0028 325.9757 0001345 262.7611  97.3088 15.27576157163635","cat":"starlink"},{"name":"STARLINK-6375","l1":"1 57342U 23099Q   26183.75874775 -.00000856  00000+0 -21600-4 0  9997","l2":"2 57342  42.9987 319.2444 0000240 327.1249  32.9588 15.27574223163714","cat":"starlink"},{"name":"STARLINK-6379","l1":"1 57343U 23099R   26183.77495372 -.00001522  00000+0 -45771-4 0  9998","l2":"2 57343  43.0051 322.7667 0001706 266.9079  93.1578 15.27579513163674","cat":"starlink"},{"name":"STARLINK-6380","l1":"1 57344U 23099S   26183.66587883  .00001082  00000+0  48841-4 0  9996","l2":"2 57344  43.0020 322.8036 0001643 271.0795  88.9868 15.27587438163662","cat":"starlink"},{"name":"STARLINK-6373","l1":"1 57345U 23099T   26183.67952003 -.00000500  00000+0 -86316-5 0  9994","l2":"2 57345  43.0014 326.3225 0001376 247.8671 112.2035 15.27574577163625","cat":"starlink"},{"name":"STARLINK-6359","l1":"1 57346U 23099U   26183.64595473 -.00000641  00000+0 -13765-4 0  9999","l2":"2 57346  43.0012 320.1133 0001541 288.8514  71.2170 15.27585987163697","cat":"starlink"},{"name":"STARLINK-6378","l1":"1 57347U 23099V   26183.75133053 -.00000616  00000+0 -12854-4 0  9994","l2":"2 57347  43.0038 326.0020 0001389 270.0004  90.0688 15.27574736163630","cat":"starlink"},{"name":"STARLINK-6372","l1":"1 57348U 23099W   26183.76516435 -.00000242  00000+0  74494-6 0  9999","l2":"2 57348  43.0068 319.2834 0001788 267.1200  92.9447 15.27575899163713","cat":"starlink"},{"name":"STARLINK-6376","l1":"1 57349U 23099X   26183.74204023 -.00000513  00000+0 -91288-5 0  9996","l2":"2 57349  43.0020 319.1146 0001050 275.6481  84.4250 15.27586421164435","cat":"starlink"},{"name":"STARLINK-6362","l1":"1 57350U 23099Y   26183.74555677  .00002104  00000+0  85949-4 0  9994","l2":"2 57350  43.0038 312.0832 0001489 285.9220  74.1468 15.27586696163789","cat":"starlink"},{"name":"STARLINK-6331","l1":"1 57351U 23099Z   26183.72661590 -.00000660  00000+0 -14461-4 0  9993","l2":"2 57351  43.0032 318.9968 0001404 267.0013  93.0678 15.27576285163716","cat":"starlink"}]