OBJECT_NAME,OBJECT_ID,EPOCH,MEAN_MOTION,ECCENTRICITY,INCLINATION,RA_OF_ASC_NODE,ARG_OF_PERICENTER,MEAN_ANOMALY,EPHEMERIS_TYPE,CLASSIFICATION_TYPE,NORAD_CAT_ID,ELEMENT_SET_NO,REV_AT_EPOCH,BSTAR,MEAN_MOTION_DOT,MEAN_MOTION_DDOT
STARLINK-30239,2023-096B,2026-07-02T17:43:47.702784,15.27574261,.0001564,43.0026,293.3623,260.9571,99.1104,0,U,57291,999,16521,-.52897E-4,-.1717E-4,0
STARLINK-30235,2023-096E,2026-07-02T16:18:46.467072,15.27641331,.0003113,43.0019,293.7792,258.7043,101.3459,0,U,57294,999,16520,.30828E-4,.587E-5,0
STARLINK-30236,2023-096L,2026-07-02T16:24:25.409088,15.27577008,.0001891,43.0054,293.7960,273.1706,86.8930,0,U,57300,999,16524,-.59414E-6,-.279E-5,0
STARLINK-30201,2023-096M,2026-07-02T16:39:13.809312,15.27560728,.0003135,43.0100,293.8740,268.6163,91.4329,0,U,57301,999,16430,.39134E-4,.813E-5,0
STARLINK-30233,2023-096N,2026-07-02T16:29:59.746848,15.27568400,.0001425,43.0041,293.8101,276.1312,83.9378,0,U,57302,999,16430,-.80572E-4,-.2478E-4,0
STARLINK-30184,2023-096W,2026-07-02T14:13:05.692800,15.27586304,.0000871,42.9993,265.5613,6.0606,354.0256,0,U,57310,999,16462,.24428E-3,.6467E-4,0
STARLINK-6290,2023-099A,2026-07-02T17:27:28.041696,15.27575287,.0002181,43.0020,322.4162,266.2330,93.8272,0,U,57328,999,16458,.19305E-4,.269E-5,0
STARLINK-6138,2023-099B,2026-07-02T18:04:28.570080,15.27572722,.0001207,43.0017,322.6093,271.1438,88.9276,0,U,57329,999,16367,-.13894E-4,-.644E-5,0
STARLINK-6212,2023-099C,2026-07-02T17:44:07.667232,15.27579173,.0001329,43.0016,322.5048,270.0459,90.0241,0,U,57330,999,16367,.18605E-4,.25E-5,0
STARLINK-6234,2023-099D,2026-07-02T17:49:40.581120,15.27574814,.0001205,43.0030,322.5350,267.6485,92.4228,0,U,57331,999,16367,-.12535E-4,-.607E-5,0
STARLINK-5831,2023-099E,2026-07-02T17:53:22.521984,15.27574577,.0001131,43.0042,322.5515,272.6837,87.3885,0,U,57332,999,16367,.12926E-4,.94E-6,0
STARLINK-5585,2023-099F,2026-07-02T17:58:55.600032,15.27576006,.0001101,43.0053,322.5796,279.1713,80.9014,0,U,57333,999,16367,-.24927E-4,-.948E-5,0
STARLINK-5589,2023-099G,2026-07-02T18:10:01.322400,15.27575320,.0001244,43.0031,322.6333,267.9773,92.0937,0,U,57334,999,16367,.83299E-4,.203E-4,0
STARLINK-6316,2023-099H,2026-07-02T18:36:38.721888,15.27576985,.0001797,43.0026,319.3717,268.7329,91.3316,0,U,57335,999,16371,.17553E-5,-.214E-5,0
STARLINK-6320,2023-099J,2026-07-02T16:53:13.759008,15.27576317,.0001919,43.0048,319.6708,281.2582,78.8053,0,U,57336,999,16370,-.27324E-4,-.1014E-4,0
STARLINK-6322,2023-099K,2026-07-02T18:21:07.956288,15.27574155,.000126,43.0039,322.6914,272.4683,87.6024,0,U,57337,999,16367,.2688E-4,.477E-5,0
STARLINK-6374,2023-099L,2026-07-02T18:24:50.204736,15.27574220,.0000358,43.0028,322.7095,287.5472,72.5340,0,U,57338,999,16367,-.25315E-4,-.958E-5,0
STARLINK-6332,2023-099M,2026-07-02T18:15:34.866144,15.27569092,.0001374,43.0042,322.6632,276.4255,83.6440,0,U,57339,999,16367,-.89935E-4,-.2735E-4,0
STARLINK-6321,2023-099N,2026-07-02T17:12:52.923744,15.27574730,.0002195,43.0048,323.1895,284.8090,75.2519,0,U,57340,999,16366,-.31946E-5,-.35E-5,0
STARLINK-6377,2023-099P,2026-07-02T17:56:22.047360,15.27576157,.0001345,43.0028,325.9757,262.7611,97.3088,0,U,57341,999,16363,.18696E-4,.252E-5,0
STARLINK-6375,2023-099Q,2026-07-02T18:12:35.805600,15.27574223,.000024,42.9987,319.2444,327.1249,32.9588,0,U,57342,999,16371,-.216E-4,-.856E-5,0
STARLINK-6379,2023-099R,2026-07-02T18:35:56.001408,15.27579513,.0001706,43.0051,322.7667,266.9079,93.1578,0,U,57343,999,16367,-.45771E-4,-.1522E-4,0
STARLINK-6380,2023-099S,2026-07-02T15:58:51.930912,15.27587438,.0001643,43.0020,322.8036,271.0795,88.9868,0,U,57344,999,16366,.48841E-4,.1082E-4,0
STARLINK-6373,2023-099T,2026-07-02T16:18:30.530592,15.27574577,.0001376,43.0014,326.3225,247.8671,112.2035,0,U,57345,999,16362,-.86316E-5,-.5E-5,0
STARLINK-6359,2023-099U,2026-07-02T15:30:10.488672,15.27585987,.0001541,43.0012,320.1133,288.8514,71.2170,0,U,57346,999,16369,-.13765E-4,-.641E-5,0
STARLINK-6378,2023-099V,2026-07-02T18:01:54.957792,15.27574736,.0001389,43.0038,326.0020,270.0004,90.0688,0,U,57347,999,16363,-.12854E-4,-.616E-5,0
STARLINK-6372,2023-099W,2026-07-02T18:21:50.199840,15.27575899,.0001788,43.0068,319.2834,267.1200,92.9447,0,U,57348,999,16371,.74494E-6,-.242E-5,0
STARLINK-6376,2023-099X,2026-07-02T17:48:32.275872,15.27586421,.000105,43.0020,319.1146,275.6481,84.4250,0,U,57349,999,16443,-.91288E-5,-.513E-5,0
STARLINK-6362,2023-099Y,2026-07-02T17:53:36.104928,15.27586696,.0001489,43.0038,312.0832,285.9220,74.1468,0,U,57350,999,16378,.85949E-4,.2104E-4,0
STARLINK-6331,2023-099Z,2026-07-02T17:26:19.613760,15.27576285,.0001404,43.0032,318.9968,267.0013,93.0678,0,U,57351,999,16371,-.14461E-4,-.66E-5,0
